STARLINK-1625
1 46131U 20057Q   26061.25002314  .00136108  00000+0  69836-3 0  9994
2 46131  53.0478 285.5992 0006821 175.3064 302.6685 15.80335047  6009
